algorithm,apogee,argOfPerigee,bStar,classificationMarking,elset_created_at,elset_created_by,dataMode,eccentricity,idElset,idOnOrbit,inclination,line1,line2,meanAnomaly,meanMotion,meanMotionDDot,meanMotionDot,origNetwork,perigee,period,raan,revNo,satNo,semiMajorAxis,source,__START_AT,__END_AT,COUNTRY,LAUNCH,LAUNCH_NUM,LAUNCH_PIECE,NORAD_CAT_ID,OBJECT_ID,OBJECT_NAME,OBJECT_NUMBER,OBJECT_TYPE,RCS_SIZE,SATNAME,SITE,satcat_current_fetch_date
SGP4,6926.336,103.2129,2.3111E-4,U,2024-01-31T23:05:15.200Z,system.ob-ingest,REAL,1.45E-4,22bda306-cb41-44d5-a42f-cd2bc43a8e8d,45190,53.0538,1 45190U 20012N   24031.50912876 +.00003163 +00000+0 +23111-3 0 99994,2 45190  53.0538 215.1150 0001450 103.2129 256.9022 15.06405438219518,256.9022,15.06405438,0.0,3.163E-5,OPS1,6924.328,95.592,215.115,21951,45190,6925.332,18th SPCS,2024-01-31T12:13:08.724864Z,2024-02-02T11:59:20.048640Z,US,2020-02-17,12,N,45190,2020-012N,STARLINK-1234,45190,PAYLOAD,LARGE,STARLINK-1234,AFETR,2024-08-21
SGP4,6926.306,93.7677,2.0621E-4,U,2024-02-01T05:05:14.207Z,system.ob-ingest,REAL,1.314E-4,4acd76f5-02d5-4c28-bc3e-deee5928c3a7,45373,53.0572,1 45373U 20019P   24031.93302268 +.00002790 +00000+0 +20621-3 0 99997,2 45373  53.0572  13.2113 0001314  93.7677 266.3462 15.06384494214016,266.3462,15.06384494,0.0,2.79E-5,OPS1,6924.486,95.593,13.2113,21401,45373,6925.396,18th SPCS,2024-01-31T22:23:33.159552Z,2024-02-01T04:45:42.598080Z,US,2020-03-18,19,P,45373,2020-019P,STARLINK-1295,45373,PAYLOAD,LARGE,STARLINK-1295,AFETR,2024-08-21
SGP4,6926.372,104.4674,5.461E-4,U,2024-02-01T05:05:13.740Z,system.ob-ingest,REAL,1.493E-4,555c28d3-c173-4629-90ad-f0a05dece8bd,45532,53.055,1 45532U 20025B   24031.80216695 +.00007863 +00000+0 +54610-3 0 99996,2 45532  53.0550 313.7968 0001493 104.4674 255.6480 15.06403491209351,255.648,15.06403491,0.0,7.863E-5,OPS1,6924.304,95.592,313.7968,20935,45532,6925.338,18th SPCS,2024-01-31T19:15:07.224480Z,2024-02-01T00:01:44.142240Z,US,2020-04-22,25,B,45532,2020-025B,STARLINK-1338,45532,PAYLOAD,LARGE,STARLINK-1338,AFETR,2024-08-21
SGP4,6926.322,106.5751,7.0717E-4,U,2024-01-31T23:05:15.179Z,system.ob-ingest,REAL,1.426E-4,3f802ce7-1536-44ce-9005-4f8d79106a64,45544,53.0548,1 45544U 20025P   24031.79848039 +.00010269 +00000+0 +70717-3 0 99990,2 45544  53.0548 313.8145 0001426 106.5751 253.5395 15.06404600208752,253.5395,15.064046,0.0,1.0269E-4,OPS1,6924.347,95.592,313.8145,20875,45544,6925.334,18th SPCS,2024-01-31T19:09:48.705696Z,2024-02-01T01:31:57.922176Z,US,2020-04-22,25,P,45544,2020-025P,STARLINK-1373,45544,PAYLOAD,LARGE,STARLINK-1373,AFETR,2024-08-21
SGP4,6561.071,257.9704,0.0031778,U,2023-11-12T05:05:11.168Z,system.ob-ingest,REAL,5.307E-4,dc50a99f-4314-41b9-ac9d-a116b2fdd980,45584,53.0123,1 45584U 20025BF  23316.19169128 +.24390335 +12204-4 +31778-2 0 99996,2 45584  53.0123 179.7116 0005307 257.9704 201.8709 16.34881513198491,201.8709,16.34881513,1.2204E-5,0.24390335,OPS1,6554.111,88.08,179.7116,19849,45584,6557.591,18th SPCS,2023-11-12T04:36:02.126592Z,"",US,2020-04-22,25,BF,45584,2020-025BF,STARLINK-1343,45584,PAYLOAD,LARGE,STARLINK-1343,AFETR,2024-08-21
SGP4,6569.333,189.8366,0.0027789,U,2023-11-29T14:05:12.044Z,system.ob-ingest,REAL,0.0015262,94b4d06a-fa63-4841-b11d-5842551ee473,46065,53.0253,1 46065U 20055AQ  23333.48746806 +.20771144 +11950-4 +27789-2 0 99990,2 46065  53.0253 178.8420 0015262 189.8366 255.1840 16.34234437184205,255.184,16.34234437,1.195E-5,0.20771144,OPS1,6549.311,88.115,178.842,18420,46065,6559.322,18th SPCS,2023-11-29T11:41:57.240384Z,"",US,2020-08-07,55,AQ,46065,2020-055AQ,STARLINK-1515,46065,PAYLOAD,LARGE,STARLINK-1515,AFETR,2024-08-21
SGP4,6926.364,85.1167,8.2248E-6,U,2024-01-31T23:05:14.955Z,system.ob-ingest,REAL,1.431E-4,e3d88a4a-c287-4c75-8451-251c9243fbb1,46142,53.0538,1 46142U 20057AB  24031.74594766 -.00000159 +00000+0 +82248-5 0 99992,2 46142  53.0538 164.0513 0001431  85.1167 274.9985 15.06391882190973,274.9985,15.06391882,0.0,-1.59E-6,OPS1,6924.382,95.593,164.0513,19097,46142,6925.373,18th SPCS,2024-01-31T17:54:09.877824Z,2024-02-01T16:11:42.881568Z,US,2020-08-18,57,AB,46142,2020-057AB,STARLINK-1597,46142,PAYLOAD,LARGE,STARLINK-1597,AFETR,2024-08-21
SGP4,6718.188,102.5039,5.42E-4,U,2024-01-31T07:05:13.116Z,system.ob-ingest,REAL,1.485E-4,de245ebe-4466-4463-99df-1abd7fbe04ce,46569,53.054,1 46569U 20070AP  24031.18163234 +.00089934 +00000+0 +54200-3 0 99992,2 46569  53.0540 352.4759 0001485 102.5039 257.6147 15.76962154183855,257.6147,15.76962154,0.0,8.9934E-4,OPS1,6716.193,91.315,352.4759,18385,46569,6717.19,18th SPCS,2024-01-31T04:21:33.034176Z,2024-02-01T03:10:13.431360Z,US,2020-10-06,70,AP,46569,2020-070AP,STARLINK-1747,46569,PAYLOAD,LARGE,STARLINK-1747,AFETR,2024-08-21
SGP4,6926.331,94.7693,9.7899E-5,U,2024-01-31T05:05:13.753Z,system.ob-ingest,REAL,1.522E-4,d1b31285-8d19-4245-838d-08902855d69c,46743,53.0537,1 46743U 20074E   24030.83319457 +.00001178 +00000+0 +97899-4 0 99997,2 46743  53.0537 173.1495 0001522  94.7693 265.3470 15.06423350180798,265.347,15.0642335,0.0,1.178E-5,OPS1,6924.223,95.591,173.1495,18079,46743,6925.277,18th SPCS,2024-01-30T19:59:48.010848Z,2024-02-01T00:39:33.227424Z,US,2020-10-24,74,E,46743,2020-074E,STARLINK-1892,46743,PAYLOAD,LARGE,STARLINK-1892,AFETR,2024-08-21
SGP4,6926.185,112.0688,1.6044E-4,U,2024-01-31T23:05:15.257Z,system.ob-ingest,REAL,1.2E-4,f0d5bb96-bef6-4ce3-83a1-769e78f0b1c6,47642,53.0538,1 47642U 21012Y   24031.10921382 +.00002109 +00000+0 +16044-3 0 99993,2 47642  53.0538 276.9074 0001200 112.0688 248.0428 15.06398106164203,248.0428,15.06398106,0.0,2.109E-5,OPS1,6924.523,95.592,276.9074,16420,47642,6925.354,18th SPCS,2024-01-31T02:37:16.074048Z,2024-02-01T00:54:48.811680Z,US,2021-02-16,12,Y,47642,2021-012Y,STARLINK-2020,47642,PAYLOAD,LARGE,STARLINK-2020,AFETR,2024-08-21
SGP4,6926.251,86.695,4.9434E-5,U,2024-01-31T15:05:13.972Z,system.ob-ingest,REAL,1.29E-4,df475e3e-27f3-48d0-9c87-08bfb22ae17f,47741,53.0541,1 47741U 21017V   24031.46997061 +.00000455 +00000+0 +49434-4 0 99996,2 47741  53.0541  60.2890 0001290  86.6950 273.4187 15.06397082161319,273.4187,15.06397082,0.0,4.55E-6,OPS1,6924.464,95.592,60.289,16131,47741,6925.358,18th SPCS,2024-01-31T11:16:45.460704Z,2024-02-01T11:09:50.442624Z,US,2021-03-04,17,V,47741,2021-017V,STARLINK-2154,47741,PAYLOAD,LARGE,STARLINK-2154,AFETR,2024-08-21
SGP4,6926.416,92.8526,8.6819E-5,U,2024-01-31T15:05:13.992Z,system.ob-ingest,REAL,1.526E-4,d1bfd7ce-6926-4ab4-8161-c01848838514,47747,53.0549,1 47747U 21017AB  24031.43771972 +.00001012 +00000+0 +86819-4 0 99998,2 47747  53.0549  50.4359 0001526  92.8526 267.2638 15.06396572161443,267.2638,15.06396572,0.0,1.012E-5,OPS1,6924.302,95.592,50.4359,16144,47747,6925.359,18th SPCS,2024-01-31T10:30:18.983808Z,2024-02-01T10:23:24.042624Z,US,2021-03-04,17,AB,47747,2021-017AB,STARLINK-2161,47747,PAYLOAD,LARGE,STARLINK-2161,AFETR,2024-08-21
SGP4,6926.474,78.1171,1.0572E-4,U,2024-01-31T15:05:14.020Z,system.ob-ingest,REAL,1.599E-4,e5420ce7-19bb-4139-8f02-c4f0e859d986,47767,53.0545,1 47767U 21017AX  24031.46628815 +.00001293 +00000+0 +10572-3 0 99993,2 47767  53.0545  60.3079 0001599  78.1171 281.9997 15.06394162161313,281.9997,15.06394162,0.0,1.293E-5,OPS1,6924.259,95.593,60.3079,16131,47767,6925.366,18th SPCS,2024-01-31T11:11:27.296160Z,2024-02-01T11:04:32.107008Z,US,2021-03-04,17,AX,47767,2021-017AX,STARLINK-2185,47767,PAYLOAD,LARGE,STARLINK-2185,AFETR,2024-08-21
SGP4,6926.281,100.9427,1.5071E-4,U,2024-01-31T23:05:15.381Z,system.ob-ingest,REAL,1.308E-4,f26418d4-1537-42c3-883d-ab66e6d78d7f,47838,53.0532,1 47838U 21018BD  24031.60634655 +.00001964 +00000+0 +15071-3 0 99992,2 47838  53.0532  99.6795 0001308 100.9427 259.1709 15.06391437160829,259.1709,15.06391437,0.0,1.964E-5,OPS1,6924.469,95.593,99.6795,16082,47838,6925.375,18th SPCS,2024-01-31T14:33:08.341920Z,2024-02-01T14:26:13.770528Z,US,2021-03-11,18,BD,47838,2021-018BD,STARLINK-2429,47838,PAYLOAD,LARGE,STARLINK-2429,AFETR,2024-08-21
SGP4,6926.325,106.7639,-1.3151E-4,U,2024-02-01T05:05:14.279Z,system.ob-ingest,REAL,1.497E-4,0a318e2b-4d84-45ed-ac3d-4f5820396f5e,48098,53.057,1 48098U 21027G   24031.93900137 -.00002241 +00000+0 -13151-3 0 99996,2 48098  53.0570   8.1826 0001497 106.7639 253.3514 15.06419702156830,253.3514,15.06419702,0.0,-2.241E-5,OPS1,6924.251,95.591,8.1826,15683,48098,6925.288,18th SPCS,2024-01-31T22:32:09.718368Z,2024-02-01T03:18:46.719936Z,US,2021-04-07,27,G,48098,2021-027G,STARLINK-2421,48098,PAYLOAD,LARGE,STARLINK-2421,AFETR,2024-08-21
SGP4,6926.442,105.2502,-6.133E-5,U,2024-01-31T07:05:13.093Z,system.ob-ingest,REAL,1.547E-4,5484842b-c107-41eb-bea5-a9a51e415648,48317,53.0548,1 48317U 21036AT  24031.03871929 -.00001195 +00000+0 -61330-4 0 99997,2 48317  53.0548 302.2267 0001547 105.2502 254.8658 15.06392756152969,254.8658,15.06392756,0.0,-1.195E-5,OPS1,6924.299,95.593,302.2267,15296,48317,6925.371,18th SPCS,2024-01-31T00:55:45.346656Z,2024-02-01T00:48:50.691456Z,US,2021-04-29,36,AT,48317,2021-036AT,STARLINK-2513,48317,PAYLOAD,LARGE,STARLINK-2513,AFETR,2024-08-21
SGP4,6926.201,74.4715,0.0010047,U,2024-02-01T05:05:14.010Z,system.ob-ingest,REAL,1.219E-4,6b70c667-d66d-4159-bc40-ab01d961f88f,48322,53.054,1 48322U 21036AY  24031.74550241 +.00014714 +00000+0 +10047-2 0 99998,2 48322  53.0540 309.0566 0001219  74.4715 285.6408 15.06397411152286,285.6408,15.06397411,0.0,1.4714E-4,OPS1,6924.512,95.592,309.0566,15228,48322,6925.356,18th SPCS,2024-01-31T17:53:31.408224Z,2024-02-01T01:51:13.027968Z,US,2021-04-29,36,AY,48322,2021-036AY,STARLINK-2477,48322,PAYLOAD,LARGE,STARLINK-2477,AFETR,2024-08-21
SGP4,6926.309,101.2258,9.1726E-5,U,2024-02-01T05:05:14.052Z,system.ob-ingest,REAL,1.388E-4,20f8884a-3110-4de0-b97d-18a50fb14fb6,48354,53.0537,1 48354U 21038B   24031.89845455 +.00001085 +00000+0 +91726-4 0 99997,2 48354  53.0537 208.3681 0001388 101.2258 258.8887 15.06400132151304,258.8887,15.06400132,0.0,1.085E-5,OPS1,6924.387,95.592,208.3681,15130,48354,6925.348,18th SPCS,2024-01-31T21:33:46.473120Z,2024-02-01T11:53:38.290848Z,US,2021-05-04,38,B,48354,2021-038B,STARLINK-2674,48354,PAYLOAD,LARGE,STARLINK-2674,AFETR,2024-08-21
